OPS 6582 (TRANSIT 5B-5) 
1 00965U 64083D   22170.57506531  .00000048  00000+0  54100-4 0  9990
2 00965  90.0246 195.4444 0039615 220.6362 310.0651 13.56781111845804
OSCAR 7 (AO-7)          
1 07530U 74089B   22170.50651567 -.00000030  00000+0  10000-3 0  9997
2 07530 101.9039 150.3830 0012569  39.3297  76.6676 12.53655440177723
UOSAT 2 (UO-11)         
1 14781U 84021B   22170.47460567  .00000829  00000+0  10638-3 0  9996
2 14781  97.6171 157.8165 0007391 324.6412  35.4312 14.83680985 40340
NOAA 9                  
1 15427U 84123A   22170.50955146  .00000073  00000+0  59992-4 0  9991
2 15427  99.0451 142.9262 0015216 155.6961 313.1977 14.16203970936904
LUSAT (LO-19)           
1 20442U 90005G   22170.47488906  .00000108  00000+0  56177-4 0  9992
2 20442  98.7938 135.3670 0012088 157.6927 202.4784 14.33064488693397
ITAMSAT (IO-26)         
1 22826U 93061D   22170.49618367  .00000077  00000+0  47170-4 0  9991
2 22826  98.8807 201.4564 0009628  38.4774 321.7092 14.30521512498708
RADIO ROSTO (RS-15)     
1 23439U 94085A   22170.61414763 -.00000037  00000+0  15882-3 0  9998
2 23439  64.8149 142.1205 0168114 272.1445  86.0233 11.27572674131735
JAS-2 (FO-29)           
1 24278U 96046B   22170.50282406 -.00000013  00000+0  25374-4 0  9996
2 24278  98.5156 193.9103 0349220 278.0272  78.1387 13.53115992275886
NOAA 15                 
1 25338U 98030A   22170.52464539  .00000164  00000+0  87046-4 0  9990
2 25338  98.6434 200.0334 0009203 294.3407  65.6811 14.26140058253314
TECHSAT 1B (GO-32)      
1 25397U 98043D   22170.39647565  .00000055  00000+0  43654-4 0  9992
2 25397  98.8178 120.8695 0002398  95.3769 264.7682 14.23757819243709
ISS (ZARYA)             
1 25544U 98067A   22170.51785817  .00008510  00000+0  15807-3 0  9991
2 25544  51.6447 325.0435 0003986 280.6955 153.1628 15.49788248345545
ORSTED                  
1 25635U 99008B   22170.49144677  .00000254  00000+0  67506-4 0  9999
2 25635  96.4598  34.9305 0138323 174.1180 186.1683 14.48477508230578
PHASE 3D (AO-40)        
1 26609U 00072B   22169.37372847 -.00000200  00000+0  00000+0 0  9994
2 26609   6.6544 270.1142 7994834  18.5188 358.5537  1.25588856 99161
PCSAT (NO-44)           
1 26931U 01043C   22170.40935245  .00000087  00000+0  65012-4 0  9995
2 26931  67.0523  53.3500 0007602 263.3763  96.6473 14.30709248 81683
SAUDISAT 1C (SO-50)     
1 27607U 02058C   22170.48925887  .00000559  00000+0  97308-4 0  9999
2 27607  64.5552 295.6711 0078543 294.0351  65.2546 14.76134987 48676
CUTE-1 (CO-55)          
1 27844U 03031E   22170.46641091  .00000227  00000+0  12143-3 0  9999
2 27844  98.6779 178.1226 0011156  95.6726 264.5725 14.22455302984155
CUBESAT XI-IV (CO-57)   
1 27848U 03031J   22170.50038312  .00000190  00000+0  10541-3 0  9993
2 27848  98.6824 178.6752 0010959 108.1841 252.0531 14.22011983983976
MOZHAYETS 4 (RS-22)     
1 27939U 03042A   22167.10218257  .00000645  00000+0  12290-3 0  9994
2 27939  98.1916 307.8229 0012349 207.0534 153.0014 14.67355651   846
INMARSAT 4-F1           
1 28628U 05009A   22170.47117715 -.00000270  00000+0  00000+0 0  9993
2 28628   3.6131  35.1083 0002973  60.6757 124.9957  1.00272178 63042
NOAA 18                 
1 28654U 05018A   22170.47256021  .00000175  00000+0  11826-3 0  9991
2 28654  98.9490 240.9070 0013520 329.6394  30.3994 14.12743414880268
CUBESAT XI-V            
1 28895U 05043F   22170.43207884  .00000914  00000+0  18182-3 0  9998
2 28895  98.1071 301.7797 0017724 132.5006 227.7698 14.64349406887704
METOP-A                 
1 29499U 06044A   22170.55835380  .00001049  00000+0  14756-3 0  9995
2 29499  98.4503 215.2296 0197937   1.8476 159.7749 14.67239705810985
CARTOSAT-2 (IRS-P7)     
1 29710U 07001B   22170.31539741  .00019641  00000+0  48459-3 0  9995
2 29710  97.8661 275.8879 0151654  51.4680 310.0041 15.29477558836526
FALCONSAT-3             
1 30776U 07006E   22170.50954824  .00035618  00000+0  53983-3 0  9998
2 30776  35.4305 246.8053 0002331 121.0427 239.0534 15.53612654849903
CAPE-1                  
1 31130U 07012P   22170.43550706  .00000758  00000+0  16933-3 0  9994
2 31130  98.2696 110.9870 0093816 287.5796  71.5170 14.57121811805383
CARTOSAT-2A             
1 32783U 08021A   22167.13357374  .00000649  00000+0  95663-4 0  9996
2 32783  97.9652 227.3791 0013184 167.0812 193.0782 14.78640894762822
CUTE-1.7+APD II (CO-65) 
1 32785U 08021C   22170.24400876  .00001793  00000+0  19325-3 0  9991
2 32785  97.6572 141.0356 0011352 222.7788 137.2547 14.89598122766750
COMPASS-1               
1 32787U 08021E   22170.45593215  .00002922  00000+0  26637-3 0  9995
2 32787  97.5626 152.3814 0013011 132.5696 227.6626 14.95810002768356
AAUSAT-II               
1 32788U 08021F   22170.50897000  .00005052  00000+0  43739-3 0  9990
2 32788  97.5335 155.7503 0013409 112.0491 248.2157 14.97497450768744
DELFI-C3 (DO-64)        
1 32789U 08021G   22170.53183611  .00012408  00000+0  68859-3 0  9993
2 32789  97.3385 196.7550 0008532 326.0973  33.9712 15.13852808772245
SEEDS II (CO-66)        
1 32791U 08021J   22169.91774381  .00002092  00000+0  20800-3 0  9998
2 32791  97.6113 146.2124 0012587 177.6146 182.5136 14.92674454767413
YUBILEINY (RS-30)       
1 32953U 08025A   22167.01047158  .00000021  00000+0  80971-4 0  9992
2 32953  82.5032 184.8327 0017921 263.0870  96.8181 12.43110871638157
FENGYUN 3A              
1 32958U 08026A   22170.44249519  .00000085  00000+0  61054-4 0  9995
2 32958  98.5025 132.9928 0009277  24.8995 335.2627 14.18722636728504
PRISM (HITOMI)          
1 33493U 09002B   22170.54633131  .00004039  00000+0  33088-3 0  9991
2 33493  98.2267 157.2390 0015391 160.3195 199.8624 14.99822940729295
STARS (KUKAI)           
1 33498U 09002G   22170.54893108  .00001327  00000+0  18262-3 0  9992
2 33498  98.1690  62.5865 0009325 242.4741 117.5523 14.79997567721746
KKS-1 (KISEKI)          
1 33499U 09002H   22170.47954046  .00000713  00000+0  11130-3 0  9999
2 33499  98.2178  52.5591 0008051 315.9277  44.1289 14.76019966720545
NOAA 19                 
1 33591U 09005A   22170.54489752  .00000148  00000+0  10489-3 0  9998
2 33591  99.1473 204.7259 0013991 177.9701 182.1529 14.12578324688489
SWISSCUBE               
1 35932U 09051B   22170.57397145  .00000618  00000+0  14869-3 0  9995
2 35932  98.5685  26.5712 0008512  47.4110 312.7804 14.56868067676400
BEESAT-1                
1 35933U 09051C   22170.39164998  .00000567  00000+0  13728-3 0  9990
2 35933  98.5627  28.0123 0006862  60.1493 300.0385 14.56883824676459
ITUPSAT1                
1 35935U 09051E   22170.54771027  .00000477  00000+0  11944-3 0  9994
2 35935  98.5728  28.2280 0009187  61.0210 299.1906 14.55992482676186
XIWANG-1 (HOPE-1)       
1 36122U 09072B   22170.47535310 -.00000015  00000+0  74172-4 0  9993
2 36122 100.1825 141.7612 0007300 342.3521  17.7338 13.16369659601077
CARTOSAT-2B             
1 36795U 10035A   22167.10366073 -.00000249  00000+0 -26834-4 0  9996
2 36795  97.9595 227.4973 0012607 245.8115 114.1837 14.78629767643861
TISAT 1                 
1 36799U 10035E   22170.53022586  .00002970  00000+0  29197-3 0  9994
2 36799  98.1824  21.0567 0013345  89.5813 270.6934 14.92901712648071
FENGYUN 3B              
1 37214U 10059A   22167.00746661 -.00000004  00000+0  21923-4 0  9995
2 37214  99.0910 172.9550 0022230   2.1957 357.9313 14.14256903600753
JUGNU                   
1 37839U 11058B   22170.32978058  .00000364  00000+0  52006-4 0  9998
2 37839  19.9594 164.0845 0018951 176.8600 315.2197 14.12787939552404
SRMSAT                  
1 37841U 11058D   22170.53964378  .00000343  00000+0  43249-4 0  9990
2 37841  19.9711 242.3119 0011951   7.7845 121.9072 14.10756762551533
M-CUBED & EXP-1 PRIME   
1 37855U 11061F   22170.29055097  .00011992  00000+0  52387-3 0  9995
2 37855 101.7094 290.3368 0152954  56.9478 304.6323 15.12425780581514
HORYU-2                 
1 38340U 12025D   22170.17402348  .00001376  00000+0  20444-3 0  9992
2 38340  98.1947 248.5941 0010631 216.3282 143.7207 14.76646040532491
METOP-B                 
1 38771U 12049A   22170.54124742  .00000077  00000+0  55082-4 0  9990
2 38771  98.6955 230.2633 0001853  79.4903  54.2495 14.21490111506035
SARAL                   
1 39086U 13009A   22170.55591734  .00000058  00000+0  37726-4 0  9991
2 39086  98.5474 356.1643 0000159 147.4847 212.6346 14.32047153486780
AAUSAT 3                
1 39087U 13009B   22167.02053781  .00000355  00000+0  13634-3 0  9996
2 39087  98.3993   6.6174 0011237 272.7760  87.2138 14.36177742487379
STRAND-1                
1 39090U 13009E   22170.46018269  .00000183  00000+0  78718-4 0  9998
2 39090  98.4045   8.5448 0007796 265.3602  94.6694 14.35294242487682
BRITE-AUSTRIA           
1 39091U 13009F   22170.51466461  .00000126  00000+0  58931-4 0  9998
2 39091  98.4060   7.7666 0009243 272.6593  87.3535 14.35275955487720
UNIBRITE                
1 39092U 13009G   22170.46678944  .00000124  00000+0  58551-4 0  9990
2 39092  98.4093   7.4825 0008156 267.4785  92.5467 14.35146457487678
SOMP                    
1 39134U 13015E   22170.13367228  .00012208  00000+0  43661-3 0  9999
2 39134  64.8623  56.3788 0034807 279.3752  80.3445 15.28556546507110
BEESAT-3                
1 39135U 13015F   22170.49169328  .00011289  00000+0  46380-3 0  9999
2 39135  64.8663  91.2985 0037815 286.1559  73.5409 15.23909403506421
BEESAT-2                
1 39136U 13015G   22170.21275018  .00012181  00000+0  52265-3 0  9995
2 39136  64.8748 100.3672 0016357 297.8565  62.0906 15.22921980506186
NEE-01 PEGASO           
1 39151U 13018B   22170.53852556  .00001222  00000+0  16466-3 0  9995
2 39151  97.9917 276.1934 0015567 246.2937 113.6642 14.80942667493985
CUBEBUG-1 (CAPITAN BETO)
1 39153U 13018D   22170.53746218  .00001453  00000+0  19126-3 0  9996
2 39153  98.0132 280.6222 0015487 240.4628 119.5041 14.81637667494062
